"162173 Ryugu:Ryugu:1999 JU3" "Sol"
{
	Class	"asteroid"
	Mesh	"ryugu.cmod"
	Texture	"ryugu.*"
	Radius	0.502
	EllipticalOrbit
	{
		Epoch	2458578.5  # 2019 Apr 05
		Period	1.29742253273402
		SemiMajorAxis	1.189548506183993
		Eccentricity	0.1903546558488758
		Inclination	5.884202157480312
		AscendingNode	251.5877712159343
		ArgOfPericenter	211.4580232869632
		MeanAnomaly	233.092399477472
	}
	UniformRotation
	{
		Period	7.63262
		Inclination	177.442
		AscendingNode	269.2807
	}
	LunarLambert	0.5
	Albedo	0.02
	InfoURL	"https://en.wikipedia.org/wiki/162173_Ryugu"
}

# Radar-imaged asteroids

"216 Kleopatra:Kleopatra:A905 OA:A910 RA" "Sol"
{
	Class	"asteroid"
	Mesh	"kleopatra.cmod"
	MeshCenter	[ -3.049 2.379 1.429 ]
	Texture	"asteroid.*"
	Radius	138
	EllipticalOrbit
	{
		Epoch	2458200.5  # 2018 Mar 23
		Period	4.670567585982
		SemiMajorAxis	2.794093740995
		Eccentricity	0.250873074015
		Inclination	13.113415302806
		AscendingNode	215.358562549286
		ArgOfPericenter	180.111284490109
		MeanAnomaly	346.241182618875
	}
	UniformRotation
	{
		Period	5.385280
		Inclination	63
		AscendingNode	162
	}
	LunarLambert	0.5
	Albedo	0.1164
	InfoURL	"https://en.wikipedia.org/wiki/216_Kleopatra"
}

"Cleoselene:216 Kleopatra II:Kleopatra II:S-2008 (216) 2" "Sol/Kleopatra"
{
	Class	"moon"
	Mesh	"asteroid.cms"
	Texture	"asteroid.*"
	Radius	3.45
	EllipticalOrbit
	{
		Period	1.24
		SemiMajorAxis	454
		Eccentricity	0.0
	}
	LunarLambert	0.5
	Albedo	0.1164
	InfoURL	"http://www.johnstonsarchive.net/astro/astmoons/am-00216.html"
}

"Alexhelios:216 Kleopatra I:Kleopatra I:S-2008 (216) 1" "Sol/Kleopatra"
{
	Class	"moon"
	Mesh	"asteroid.cms"
	Orientation	[ 180 1 0 0 ]
	Texture	"asteroid.*"
	Radius	4.45
	EllipticalOrbit
	{
		Period	2.32
		SemiMajorAxis	678
		Eccentricity	0.0
	}
	LunarLambert	0.5
	Albedo	0.1164
	InfoURL	"http://www.johnstonsarchive.net/astro/astmoons/am-00216.html"
}

"1620 Geographos:Geographos:1951 RA:1983 CY3" "Sol"
{
	Class	"asteroid"
	Mesh	"geographos.cmod"
	MeshCenter	[ 0.154 -0.002 -0.026 ]
	Texture	"asteroid.*"
	Color	[ 1.000 0.950 0.840 ]
	BlendTexture	true
	Radius	2.5
	EllipticalOrbit
	{
		Epoch	2457000.5  # 2014 Dec 09
		Period	1.3901518471382
		SemiMajorAxis	1.245573498070266
		Eccentricity	0.335430907784686
		Inclination	13.33763553912958
		AscendingNode	337.2193489353145
		ArgOfPericenter	276.8688555134938
		MeanAnomaly	256.826134483741
	}
	UniformRotation
	{
		Period	5.22204
		Inclination	136
		AscendingNode	145
	}
	LunarLambert	0.5
	Albedo	0.3258
	InfoURL	"https://en.wikipedia.org/wiki/1620_Geographos"
}

"2063 Bacchus:Bacchus:1977 HB" "Sol"
{
	Class	"asteroid"
	Mesh	"bacchus.cmod"
	MeshCenter	[ -0.00936 -0.00610 0.00289 ]
	Texture	"asteroid.*"
	Color	[ 1.000 0.950 0.840 ]
	BlendTexture	true
	Radius	1.3
	EllipticalOrbit
	{
		Epoch	2457000.5  # 2014 Dec 09
		Period	1.1189823567767
		SemiMajorAxis	1.077812851809965
		Eccentricity	0.3493591230032135
		Inclination	9.432425275473552
		AscendingNode	33.1108977627244
		ArgOfPericenter	55.29954702156508
		MeanAnomaly	312.4660429303114
	}
	UniformRotation
	{
		Period	14.904
		Inclination	116
		AscendingNode	114
	}
	LunarLambert	0.5
	Albedo	0.56
	InfoURL	"https://en.wikipedia.org/wiki/2063_Bacchus"
}

"4179 Toutatis:Toutatis:1989 AC:1934 CT" "Sol"
{
	Class	"asteroid"
	Mesh	"toutatis.cmod"
	MeshCenter	[ 0.0313 0.2171 0.0064 ]
	Texture	"asteroid.*"
	Color	[ 1.000 0.950 0.840 ]
	BlendTexture	true
	Radius	2.13
	EllipticalOrbit
	{
		Epoch	2457000.5  # 2014 Dec 09
		Period	4.0335954783319
		SemiMajorAxis	2.533899735306762
		Eccentricity	0.6296101756201973
		Inclination	0.4471200287566686
		AscendingNode	124.3647618253029
		ArgOfPericenter	278.7510751311503
		MeanAnomaly	184.1319033839458
	}
	PrecessingRotation
	{
		Period	176
		Inclination	145
		PrecessionPeriod	-0.0201
	}
	LunarLambert	0.5
	Albedo	0.16
	InfoURL	"https://en.wikipedia.org/wiki/4179_Toutatis"
}

"4769 Castalia:Castalia:1989 PB" "Sol"
{
	Class	"asteroid"
	Mesh	"castalia.cmod"
	MeshCenter	[ -0.0456 -0.0347 -0.0178 ]
	Texture	"asteroid.*"
	Color	[ 1.000 0.950 0.840 ]
	BlendTexture	true
	Radius	0.9
	EllipticalOrbit
	{
		Epoch	2457000.5  # 2014 Dec 09
		Period	1.0964554311904
		SemiMajorAxis	1.06329846579985
		Eccentricity	0.4831758779219762
		Inclination	8.886375314583967
		AscendingNode	325.5963169809532
		ArgOfPericenter	121.3573923850026
		MeanAnomaly	327.6374077005201
	}
	UniformRotation
	{
		Period	4.095
		Inclination	146
		AscendingNode	325
	}
	LunarLambert	0.5
	Albedo	0.1
	InfoURL	"https://en.wikipedia.org/wiki/4769_Castalia"
}

"6489 Golevka:Golevka:1991 JX" "Sol"
{
	Class	"asteroid"
	Mesh	"golevka.cmod"
	MeshCenter	[ -0.0289 -0.0111 -0.0331 ]
	Texture	"asteroid.*"
	Radius	0.265
	EllipticalOrbit
	{
		Epoch	2451986.5  # 2001 Mar 18
		Period	3.9821799646425
		SemiMajorAxis	2.512320953350836
		Eccentricity	0.6009767835157114
		Inclination	2.287528857325901
		AscendingNode	212.1865625269534
		ArgOfPericenter	65.22830030999425
		MeanAnomaly	156.4488038691053
	}
	UniformRotation
	{
		Period	6.0289
		Inclination	135
		AscendingNode	292
	}
	LunarLambert	0.5
	Albedo	0.151
	InfoURL	"https://en.wikipedia.org/wiki/6489_Golevka"
}

"66391 Moshup:Moshup:1999 KW4" "Sol"
{
	Class	"asteroid"
	Mesh	"moshup.cmod"
	Orientation	[ 90 0 1 0 ]
	Texture	"asteroid.*"
	Color	[ 1.00 0.88 0.75 ]
	BlendTexture	true
	Radius	0.766
	EllipticalOrbit
	{
		Epoch	2458600.5  # 2019 Apr 27
		Period	0.514646693663
		SemiMajorAxis	0.642195596283
		Eccentricity	0.688720227347
		Inclination	38.882564734077
		AscendingNode	244.909614742747
		ArgOfPericenter	192.618431847315
		MeanAnomaly	68.086137239584
	}
	UniformRotation
	{
		Period	2.7645
		Inclination	156.1
	}
	LunarLambert	0.5
	Albedo	0.26
	InfoURL	"https://en.wikipedia.org/wiki/66391_Moshup"
}

"Squannit:66391 Moshup I:Moshup I:S-2001 (66391) 1" "Sol/Moshup"
{
	Class	"moon"
	Mesh	"squannit.cmod"
	Orientation	[ 90 0 1 0 ]
	Texture	"asteroid.*"
	Color	[ 1.00 0.88 0.75 ]
	BlendTexture	true
	Radius	0.2855
	EllipticalOrbit
	{
		Period	0.7259
		SemiMajorAxis	2.548
		Eccentricity	0.0004
		# Inclination	156.1
		AscendingNode	105.4
		ArgOfPericenter	319.7
	}
	UniformRotation
	{
		Period	17.4216
		MeridianAngle	240
	}
	LunarLambert	0.5
	Albedo	0.26
	InfoURL	"http://www.johnstonsarchive.net/astro/astmoons/am-66391.html"
}

"1998 KY26" "Sol"
{
	Class	"asteroid"
	Mesh	"ky26.cmod"
	MeshCenter	[ -0.000718 -0.000099 0.000556 ]
	Texture	"asteroid.*"
	Radius	0.015
	EllipticalOrbit
	{
		Epoch	2457000.5  # 2014 Dec 09
		Period	1.368899121085
		SemiMajorAxis	1.232845993843401
		Eccentricity	0.2019176893830575
		Inclination	1.48044409000416
		AscendingNode	84.36214896718073
		ArgOfPericenter	209.3725697026434
		MeanAnomaly	359.5729719228407
	}
	UniformRotation
	{
		Period	0.1784
	}
	LunarLambert	0.5
	Albedo	0.124
	InfoURL	"https://en.wikipedia.org/wiki/1998_KY26"
}
